STARLINK-31561          
1 59352U 24060E   26041.06996293 -.00001387  00000+0 -40874-4 0  9990
2 59352  43.0049  55.4187 0001578 270.1233  89.9438 15.27585744105842
STARLINK-31413          
1 59353U 24060F   26041.08410145  .00000822  00000+0  39387-4 0  9998
2 59353  43.0038  55.5232 0000766 246.9888 113.0883 15.27574692105841
STARLINK-31422          
1 59354U 24060G   26041.06625492  .00002616  00000+0  10455-3 0  9997
2 59354  43.0012  56.2514 0000817 241.2696 118.8074 15.27576159105831
STARLINK-31416          
1 59355U 24060H   26041.10594509  .00001097  00000+0  49399-4 0  9999
2 59355  43.0011  55.6842 0001404 267.7386  92.3305 15.27580635105848
STARLINK-31552          
1 59356U 24060J   26040.40854573  .00000433  00000+0  25256-4 0  9991
2 59356  42.9989  59.9266 0000745 255.1773 104.8996 15.27576188105737
STARLINK-31557          
1 59357U 24060K   26041.05631065  .00000406  00000+0  24284-4 0  9993
2 59357  43.0045  51.8175 0001349 249.9492 110.1215 15.27571405105880
STARLINK-31559          
1 59358U 24060L   26041.09180867  .00002168  00000+0  88288-4 0  9998
2 59358  43.0043  55.5812 0000824 253.8279 106.2482 15.27569760105841
STARLINK-31501          
1 59359U 24060M   26041.05469634  .00000578  00000+0  30524-4 0  9990
2 59359  43.0011  56.1630 0001027 269.7169  90.3565 15.27578361105833
STARLINK-31549          
1 59360U 24060N   26041.08023923  .00001776  00000+0  74040-4 0  9994
2 59360  43.0006  55.4898 0000743 200.2953 159.7870 15.27577854105848
STARLINK-31560          
1 59361U 24060P   26041.04827208 -.00001108  00000+0 -30758-4 0  9998
2 59361  43.0010  56.1064 0001854 233.3195 126.7486 15.27573722105832
STARLINK-31571          
1 59362U 24060Q   26041.11622536 -.00005980  00000+0 -20781-3 0  9990
2 59362  43.0023  55.7595 0001572 273.6556  86.4116 15.27601043105847
STARLINK-31553          
1 59363U 24060R   26041.04023787 -.00000032  00000+0  83499-5 0  9995
2 59363  43.0035  49.1151 0001247 281.1517  78.9194 15.27576563105914
STARLINK-31547          
1 59364U 24060S   26041.02772653 -.00000167  00000+0  34338-5 0  9994
2 59364  42.9991  44.7133 0000413 225.0060 135.0758 15.27578477105961
STARLINK-31537          
1 59365U 24060T   26041.05854645  .00004038  00000+0  15621-3 0  9992
2 59365  42.9989  56.1879 0000567 302.1191  57.9606 15.27571946105839
STARLINK-31451          
1 59366U 24060U   26041.07638975  .00000178  00000+0  15988-4 0  9999
2 59366  43.0019  55.4609 0000870 210.2054 149.8747 15.27582008105842
STARLINK-31428          
1 59367U 24060V   26041.08795730  .00007490  00000+0  28152-3 0  9994
2 59367  43.0056  55.5527 0002044 301.3442  58.7209 15.27569794105840
STARLINK-31419          
1 59368U 24060W   26041.09437499  .00003795  00000+0  14749-3 0  9992
2 59368  43.0051  55.5999 0001014 256.9876 103.0863 15.27549917105846
