[{"OBJECT_NAME":"STARLINK-31561","OBJECT_ID":"2024-060E","EPOCH":"2026-02-10T01:40:44.797152","MEAN_MOTION":15.27585744,"ECCENTRICITY":0.0001578,"INCLINATION":43.0049,"RA_OF_ASC_NODE":55.4187,"ARG_OF_PERICENTER":270.1233,"MEAN_ANOMALY":89.9438,"EPHEMERIS_TYPE":0,"CLASSIFICATION_TYPE":"U","NORAD_CAT_ID":59352,"ELEMENT_SET_NO":999,"REV_AT_EPOCH":10584,"BSTAR":-4.0874e-5,"MEAN_MOTION_DOT":-1.387e-5,"MEAN_MOTION_DDOT":0},{"OBJECT_NAME":"STARLINK-31413","OBJECT_ID":"2024-060F","EPOCH":"2026-02-10T02:01:06.365280","MEAN_MOTION":15.27574692,"ECCENTRICITY":7.66e-5,"INCLINATION":43.0038,"RA_OF_ASC_NODE":55.5232,"ARG_OF_PERICENTER":246.9888,"MEAN_ANOMALY":113.0883,"EPHEMERIS_TYPE":0,"CLASSIFICATION_TYPE":"U","NORAD_CAT_ID":59353,"ELEMENT_SET_NO":999,"REV_AT_EPOCH":10584,"BSTAR":3.9387e-5,"MEAN_MOTION_DOT":8.22e-6,"MEAN_MOTION_DDOT":0},{"OBJECT_NAME":"STARLINK-31422","OBJECT_ID":"2024-060G","EPOCH":"2026-02-10T01:35:24.425088","MEAN_MOTION":15.27576159,"ECCENTRICITY":8.17e-5,"INCLINATION":43.0012,"RA_OF_ASC_NODE":56.2514,"ARG_OF_PERICENTER":241.2696,"MEAN_ANOMALY":118.8074,"EPHEMERIS_TYPE":0,"CLASSIFICATION_TYPE":"U","NORAD_CAT_ID":59354,"ELEMENT_SET_NO":999,"REV_AT_EPOCH":10583,"BSTAR":0.00010455,"MEAN_MOTION_DOT":2.616e-5,"MEAN_MOTION_DDOT":0},{"OBJECT_NAME":"STARLINK-31416","OBJECT_ID":"2024-060H","EPOCH":"2026-02-10T02:32:33.655776","MEAN_MOTION":15.27580635,"ECCENTRICITY":0.0001404,"INCLINATION":43.0011,"RA_OF_ASC_NODE":55.6842,"ARG_OF_PERICENTER":267.7386,"MEAN_ANOMALY":92.3305,"EPHEMERIS_TYPE":0,"CLASSIFICATION_TYPE":"U","NORAD_CAT_ID":59355,"ELEMENT_SET_NO":999,"REV_AT_EPOCH":10584,"BSTAR":4.9399e-5,"MEAN_MOTION_DOT":1.097e-5,"MEAN_MOTION_DDOT":0},{"OBJECT_NAME":"STARLINK-31552","OBJECT_ID":"2024-060J","EPOCH":"2026-02-09T09:48:18.351072","MEAN_MOTION":15.27576188,"ECCENTRICITY":7.457e-5,"INCLINATION":42.9989,"RA_OF_ASC_NODE":59.9266,"ARG_OF_PERICENTER":255.1773,"MEAN_ANOMALY":104.8996,"EPHEMERIS_TYPE":0,"CLASSIFICATION_TYPE":"U","NORAD_CAT_ID":59356,"ELEMENT_SET_NO":999,"REV_AT_EPOCH":10573,"BSTAR":2.525633e-5,"MEAN_MOTION_DOT":4.33e-6,"MEAN_MOTION_DDOT":0},{"OBJECT_NAME":"STARLINK-31557","OBJECT_ID":"2024-060K","EPOCH":"2026-02-10T01:21:05.240160","MEAN_MOTION":15.27571405,"ECCENTRICITY":0.0001349,"INCLINATION":43.0045,"RA_OF_ASC_NODE":51.8175,"ARG_OF_PERICENTER":249.9492,"MEAN_ANOMALY":110.1215,"EPHEMERIS_TYPE":0,"CLASSIFICATION_TYPE":"U","NORAD_CAT_ID":59357,"ELEMENT_SET_NO":999,"REV_AT_EPOCH":10588,"BSTAR":2.4284e-5,"MEAN_MOTION_DOT":4.06e-6,"MEAN_MOTION_DDOT":0},{"OBJECT_NAME":"STARLINK-31559","OBJECT_ID":"2024-060L","EPOCH":"2026-02-10T02:12:12.269088","MEAN_MOTION":15.2756976,"ECCENTRICITY":8.24e-5,"INCLINATION":43.0043,"RA_OF_ASC_NODE":55.5812,"ARG_OF_PERICENTER":253.8279,"MEAN_ANOMALY":106.2482,"EPHEMERIS_TYPE":0,"CLASSIFICATION_TYPE":"U","NORAD_CAT_ID":59358,"ELEMENT_SET_NO":999,"REV_AT_EPOCH":10584,"BSTAR":8.8288e-5,"MEAN_MOTION_DOT":2.168e-5,"MEAN_MOTION_DDOT":0},{"OBJECT_NAME":"STARLINK-31501","OBJECT_ID":"2024-060M","EPOCH":"2026-02-10T01:18:45.763776","MEAN_MOTION":15.27578361,"ECCENTRICITY":0.0001027,"INCLINATION":43.0011,"RA_OF_ASC_NODE":56.163,"ARG_OF_PERICENTER":269.7169,"MEAN_ANOMALY":90.3565,"EPHEMERIS_TYPE":0,"CLASSIFICATION_TYPE":"U","NORAD_CAT_ID":59359,"ELEMENT_SET_NO":999,"REV_AT_EPOCH":10583,"BSTAR":3.0524e-5,"MEAN_MOTION_DOT":5.78e-6,"MEAN_MOTION_DDOT":0},{"OBJECT_NAME":"STARLINK-31549","OBJECT_ID":"2024-060N","EPOCH":"2026-02-10T01:55:32.669472","MEAN_MOTION":15.27577854,"ECCENTRICITY":7.43e-5,"INCLINATION":43.0006,"RA_OF_ASC_NODE":55.4898,"ARG_OF_PERICENTER":200.2953,"MEAN_ANOMALY":159.787,"EPHEMERIS_TYPE":0,"CLASSIFICATION_TYPE":"U","NORAD_CAT_ID":59360,"ELEMENT_SET_NO":999,"REV_AT_EPOCH":10584,"BSTAR":7.404e-5,"MEAN_MOTION_DOT":1.776e-5,"MEAN_MOTION_DDOT":0},{"OBJECT_NAME":"STARLINK-31560","OBJECT_ID":"2024-060P","EPOCH":"2026-02-10T01:09:30.707712","MEAN_MOTION":15.27573722,"ECCENTRICITY":0.0001854,"INCLINATION":43.001,"RA_OF_ASC_NODE":56.1064,"ARG_OF_PERICENTER":233.3195,"MEAN_ANOMALY":126.7486,"EPHEMERIS_TYPE":0,"CLASSIFICATION_TYPE":"U","NORAD_CAT_ID":59361,"ELEMENT_SET_NO":999,"REV_AT_EPOCH":10583,"BSTAR":-3.0758e-5,"MEAN_MOTION_DOT":-1.108e-5,"MEAN_MOTION_DDOT":0},{"OBJECT_NAME":"STARLINK-31571","OBJECT_ID":"2024-060Q","EPOCH":"2026-02-10T02:47:21.871104","MEAN_MOTION":15.27601043,"ECCENTRICITY":0.0001572,"INCLINATION":43.0023,"RA_OF_ASC_NODE":55.7595,"ARG_OF_PERICENTER":273.6556,"MEAN_ANOMALY":86.4116,"EPHEMERIS_TYPE":0,"CLASSIFICATION_TYPE":"U","NORAD_CAT_ID":59362,"ELEMENT_SET_NO":999,"REV_AT_EPOCH":10584,"BSTAR":-0.00020781,"MEAN_MOTION_DOT":-5.98e-5,"MEAN_MOTION_DDOT":0},{"OBJECT_NAME":"STARLINK-31553","OBJECT_ID":"2024-060R","EPOCH":"2026-02-10T00:57:56.551968","MEAN_MOTION":15.27576563,"ECCENTRICITY":0.0001247,"INCLINATION":43.0035,"RA_OF_ASC_NODE":49.1151,"ARG_OF_PERICENTER":281.1517,"MEAN_ANOMALY":78.9194,"EPHEMERIS_TYPE":0,"CLASSIFICATION_TYPE":"U","NORAD_CAT_ID":59363,"ELEMENT_SET_NO":999,"REV_AT_EPOCH":10591,"BSTAR":8.3499e-6,"MEAN_MOTION_DOT":-3.2e-7,"MEAN_MOTION_DDOT":0},{"OBJECT_NAME":"STARLINK-31547","OBJECT_ID":"2024-060S","EPOCH":"2026-02-10T00:39:55.572192","MEAN_MOTION":15.27578477,"ECCENTRICITY":4.13e-5,"INCLINATION":42.9991,"RA_OF_ASC_NODE":44.7133,"ARG_OF_PERICENTER":225.006,"MEAN_ANOMALY":135.0758,"EPHEMERIS_TYPE":0,"CLASSIFICATION_TYPE":"U","NORAD_CAT_ID":59364,"ELEMENT_SET_NO":999,"REV_AT_EPOCH":10596,"BSTAR":3.4338e-6,"MEAN_MOTION_DOT":-1.67e-6,"MEAN_MOTION_DDOT":0},{"OBJECT_NAME":"STARLINK-31537","OBJECT_ID":"2024-060T","EPOCH":"2026-02-10T01:24:18.413280","MEAN_MOTION":15.27571946,"ECCENTRICITY":5.67e-5,"INCLINATION":42.9989,"RA_OF_ASC_NODE":56.1879,"ARG_OF_PERICENTER":302.1191,"MEAN_ANOMALY":57.9606,"EPHEMERIS_TYPE":0,"CLASSIFICATION_TYPE":"U","NORAD_CAT_ID":59365,"ELEMENT_SET_NO":999,"REV_AT_EPOCH":10583,"BSTAR":0.00015621,"MEAN_MOTION_DOT":4.038e-5,"MEAN_MOTION_DDOT":0},{"OBJECT_NAME":"STARLINK-31451","OBJECT_ID":"2024-060U","EPOCH":"2026-02-10T01:50:00.074400","MEAN_MOTION":15.27582008,"ECCENTRICITY":8.7e-5,"INCLINATION":43.0019,"RA_OF_ASC_NODE":55.4609,"ARG_OF_PERICENTER":210.2054,"MEAN_ANOMALY":149.8747,"EPHEMERIS_TYPE":0,"CLASSIFICATION_TYPE":"U","NORAD_CAT_ID":59366,"ELEMENT_SET_NO":999,"REV_AT_EPOCH":10584,"BSTAR":1.5988e-5,"MEAN_MOTION_DOT":1.78e-6,"MEAN_MOTION_DDOT":0},{"OBJECT_NAME":"STARLINK-31428","OBJECT_ID":"2024-060V","EPOCH":"2026-02-10T02:06:39.510720","MEAN_MOTION":15.27569794,"ECCENTRICITY":0.0002044,"INCLINATION":43.0056,"RA_OF_ASC_NODE":55.5527,"ARG_OF_PERICENTER":301.3442,"MEAN_ANOMALY":58.7209,"EPHEMERIS_TYPE":0,"CLASSIFICATION_TYPE":"U","NORAD_CAT_ID":59367,"ELEMENT_SET_NO":999,"REV_AT_EPOCH":10584,"BSTAR":0.00028152,"MEAN_MOTION_DOT":7.49e-5,"MEAN_MOTION_DDOT":0},{"OBJECT_NAME":"STARLINK-31419","OBJECT_ID":"2024-060W","EPOCH":"2026-02-10T02:15:53.999136","MEAN_MOTION":15.27549917,"ECCENTRICITY":0.0001014,"INCLINATION":43.0051,"RA_OF_ASC_NODE":55.5999,"ARG_OF_PERICENTER":256.9876,"MEAN_ANOMALY":103.0863,"EPHEMERIS_TYPE":0,"CLASSIFICATION_TYPE":"U","NORAD_CAT_ID":59368,"ELEMENT_SET_NO":999,"REV_AT_EPOCH":10584,"BSTAR":0.00014749,"MEAN_MOTION_DOT":3.795e-5,"MEAN_MOTION_DDOT":0}]
